GEOSCAN 3 (RS92S3)      
1 64893U 25155T   26183.83165191  .00021995  00000+0  62941-3 0  9992
2 64893  97.4547 153.8964 0008354 118.6773 241.5311 15.35934546 83257
INNOSAT 3 (RS92S0)      
1 64894U 25155U   26183.86309257  .00045323  00000+0  95831-3 0  9994
2 64894  97.4492 155.7466 0008169 117.3387 242.8694 15.44986543 83382
KNACKSAT-2              
1 67683U 98067XZ  26183.27043350  .00047788  00000+0  55339-3 0  9995
2 67683  51.6255 218.5343 0008371 281.3126  78.6927 15.61304103 22630
