OBJECT_NAME,OBJECT_ID,EPOCH,MEAN_MOTION,ECCENTRICITY,INCLINATION,RA_OF_ASC_NODE,ARG_OF_PERICENTER,MEAN_ANOMALY,EPHEMERIS_TYPE,CLASSIFICATION_TYPE,NORAD_CAT_ID,ELEMENT_SET_NO,REV_AT_EPOCH,BSTAR,MEAN_MOTION_DOT,MEAN_MOTION_DDOT
GEOSCAN 3 (RS92S3),2025-155T,2026-07-02T19:57:34.725888,15.35934546,.00083542,97.4547,153.8964,118.6773,241.5311,0,U,64893,999,8325,.62940962E-3,.21995E-3,0
INNOSAT 3 (RS92S0),2025-155U,2026-07-02T20:42:51.198048,15.44986543,.0008169,97.4492,155.7466,117.3387,242.8694,0,U,64894,999,8338,.9583129E-3,.45323E-3,0
KNACKSAT-2,1998-067XZ,2026-07-02T06:29:25.454400,15.61304103,.0008371,51.6255,218.5343,281.3126,78.6927,0,U,67683,999,2263,.55339E-3,.47788E-3,0
